start=new Date('2023-05-20T00:00:00.000Z').valueOf();
sats=[{"TLE_LINE1":"1 51870U 22022U   23139.69282130  .00000949  00000-0  77721-4 0  9998","EPHEMERIS_TYPE":"0","GP_ID":"232160757","CENTER_NAME":"EARTH","ARG_OF_PERICENTER":"82.3895","EPOCH":"2023-05-19T16:37:39.760320","LAUNCH_DATE":"2022-03-03","SEMIMAJOR_AXIS":"6917.885","RA_OF_ASC_NODE":"290.5119","PERIOD":"95.438","COUNTRY_CODE":"US","MEAN_MOTION_DDOT":"0.0000000000000","MEAN_MOTION":"15.08838439","ECCENTRICITY":"0.00009530","MEAN_ANOMALY":"277.7206","APOAPSIS":"540.409","REV_AT_EPOCH":"6842","REF_FRAME":"TEME","RCS_SIZE":"LARGE","TLE_LINE2":"2 51870  53.2178 290.5119 0000953  82.3895 277.7206 15.08838439 68428","FILE":"3912278","SITE":"AFETR","CLASSIFICATION_TYPE":"U","OBJECT_NAME":"STARLINK-3591","OBJECT_ID":"2022-022U","MEAN_MOTION_DOT":"0.00000949","PERIAPSIS":"539.091","TIME_SYSTEM":"UTC","NORAD_CAT_ID":"51870","OBJECT_TYPE":"PAYLOAD","DECAY_DATE":null,"MEAN_ELEMENT_THEORY":"SGP4","BSTAR":"0.00007772100000","ELEMENT_SET_NO":"999","INCLINATION":"53.2178"},{"ECCENTRICITY":"0.00008050","APOAPSIS":"540.295","MEAN_ANOMALY":"278.1306","REV_AT_EPOCH":"6848","REF_FRAME":"TEME","RCS_SIZE":"LARGE","TLE_LINE2":"2 51871  53.2153 290.5586 0000805  81.9778 278.1306 15.08842385 68488","FILE":"3912278","TLE_LINE1":"1 51871U 22022V   23139.68177893  .00001632  00000-0  12059-3 0  9999","GP_ID":"232161506","EPHEMERIS_TYPE":"0","ARG_OF_PERICENTER":"81.9778","CENTER_NAME":"EARTH","EPOCH":"2023-05-19T16:21:45.699552","LAUNCH_DATE":"2022-03-03","SEMIMAJOR_AXIS":"6917.873","RA_OF_ASC_NODE":"290.5586","PERIOD":"95.437","COUNTRY_CODE":"US","MEAN_MOTION_DDOT":"0.0000000000000","MEAN_MOTION":"15.08842385","NORAD_CAT_ID":"51871","DECAY_DATE":null,"OBJECT_TYPE":"PAYLOAD","MEAN_ELEMENT_THEORY":"SGP4","BSTAR":"0.00012059000000","ELEMENT_SET_NO":"999","INCLINATION":"53.2153","SITE":"AFETR","CLASSIFICATION_TYPE":"U","OBJECT_NAME":"STARLINK-3567","OBJECT_ID":"2022-022V","MEAN_MOTION_DOT":"0.00001632","PERIAPSIS":"539.181","TIME_SYSTEM":"UTC"},{"TLE_LINE2":"2 51872  53.2166 289.9615 0001073  78.0337 282.0775 15.07206259 68380","FILE":"3912278","MEAN_ANOMALY":"282.0775","APOAPSIS":"545.486","REV_AT_EPOCH":"6838","ECCENTRICITY":"0.00010730","RCS_SIZE":"LARGE","REF_FRAME":"TEME","RA_OF_ASC_NODE":"289.9615","PERIOD":"95.541","MEAN_MOTION":"15.07206259","COUNTRY_CODE":"US","MEAN_MOTION_DDOT":"0.0000000000000","ARG_OF_PERICENTER":"78.0337","CENTER_NAME":"EARTH","TLE_LINE1":"1 51872U 22022W   23139.71054831  .00000001  00000-0  18670-4 0  9995","GP_ID":"232161758","EPHEMERIS_TYPE":"0","SEMIMAJOR_AXIS":"6922.879","LAUNCH_DATE":"2022-03-03","EPOCH":"2023-05-19T17:03:11.373984","ELEMENT_SET_NO":"999","INCLINATION":"53.2166","NORAD_CAT_ID":"51872","BSTAR":"0.00001867000000","OBJECT_TYPE":"PAYLOAD","DECAY_DATE":null,"MEAN_ELEMENT_THEORY":"SGP4","OBJECT_ID":"2022-022W","OBJECT_NAME":"STARLINK-3554","PERIAPSIS":"544.001","TIME_SYSTEM":"UTC","MEAN_MOTION_DOT":"0.00000001","SITE":"AFETR","CLASSIFICATION_TYPE":"U"},{"NORAD_CAT_ID":"51873","BSTAR":"0.00007073200000","DECAY_DATE":null,"MEAN_ELEMENT_THEORY":"SGP4","OBJECT_TYPE":"PAYLOAD","ELEMENT_SET_NO":"999","INCLINATION":"53.2169","SITE":"AFETR","CLASSIFICATION_TYPE":"U","OBJECT_ID":"2022-022X","OBJECT_NAME":"STARLINK-3582","PERIAPSIS":"538.923","TIME_SYSTEM":"UTC","MEAN_MOTION_DOT":"0.00000838","APOAPSIS":"540.556","MEAN_ANOMALY":"272.3799","REV_AT_EPOCH":"6825","ECCENTRICITY":"0.00011800","RCS_SIZE":"LARGE","REF_FRAME":"TEME","TLE_LINE2":"2 51873  53.2169 294.1746 0001180  87.7328 272.3799 15.08841914 68251","FILE":"3911604","CENTER_NAME":"EARTH","ARG_OF_PERICENTER":"87.7328","TLE_LINE1":"1 51873U 22022X   23138.87586084  .00000838  00000-0  70732-4 0  9997","GP_ID":"232124466","EPHEMERIS_TYPE":"0","LAUNCH_DATE":"2022-03-03","SEMIMAJOR_AXIS":"6917.875","EPOCH":"2023-05-18T21:01:14.376576","RA_OF_ASC_NODE":"294.1746","PERIOD":"95.437","MEAN_MOTION":"15.08841914","COUNTRY_CODE":"US","MEAN_MOTION_DDOT":"0.0000000000000"},{"NORAD_CAT_ID":"51874","BSTAR":"0.00005937400000","OBJECT_TYPE":"PAYLOAD","DECAY_DATE":null,"MEAN_ELEMENT_THEORY":"SGP4","ELEMENT_SET_NO":"999","INCLINATION":"53.2164","SITE":"AFETR","CLASSIFICATION_TYPE":"U","OBJECT_NAME":"STARLINK-3574","OBJECT_ID":"2022-022Y","TIME_SYSTEM":"UTC","PERIAPSIS":"538.805","MEAN_MOTION_DOT":"0.00000657","REV_AT_EPOCH":"6836","APOAPSIS":"540.694","MEAN_ANOMALY":"286.4400","ECCENTRICITY":"0.00013650","RCS_SIZE":"LARGE","REF_FRAME":"TEME","TLE_LINE2":"2 51874  53.2164 290.5744 0001365  73.6742 286.4400 15.08838627 68368","FILE":"3912278","CENTER_NAME":"EARTH","ARG_OF_PERICENTER":"73.6742","EPHEMERIS_TYPE":"0","GP_ID":"232161256","TLE_LINE1":"1 51874U 22022Y   23139.67810148  .00000657  00000-0  59374-4 0  9996","LAUNCH_DATE":"2022-03-03","EPOCH":"2023-05-19T16:16:27.967872","SEMIMAJOR_AXIS":"6917.885","PERIOD":"95.438","RA_OF_ASC_NODE":"290.5744","MEAN_MOTION":"15.08838627","MEAN_MOTION_DDOT":"0.0000000000000","COUNTRY_CODE":"US"},{"ECCENTRICITY":"0.00010060","APOAPSIS":"540.451","MEAN_ANOMALY":"269.2638","REV_AT_EPOCH":"6838","REF_FRAME":"TEME","RCS_SIZE":"LARGE","TLE_LINE2":"2 51875  53.2168 290.2904 0001006  90.8469 269.2638 15.08836926 68381","FILE":"3912278","TLE_LINE1":"1 51875U 22022Z   23139.72224961  .00000687  00000-0  61272-4 0  9998","GP_ID":"232161007","EPHEMERIS_TYPE":"0","CENTER_NAME":"EARTH","ARG_OF_PERICENTER":"90.8469","SEMIMAJOR_AXIS":"6917.890","LAUNCH_DATE":"2022-03-03","EPOCH":"2023-05-19T17:20:02.366304","RA_OF_ASC_NODE":"290.2904","PERIOD":"95.438","COUNTRY_CODE":"US","MEAN_MOTION_DDOT":"0.0000000000000","MEAN_MOTION":"15.08836926","NORAD_CAT_ID":"51875","MEAN_ELEMENT_THEORY":"SGP4","DECAY_DATE":null,"OBJECT_TYPE":"PAYLOAD","BSTAR":"0.00006127200000","ELEMENT_SET_NO":"999","INCLINATION":"53.2168","SITE":"AFETR","CLASSIFICATION_TYPE":"U","OBJECT_NAME":"STARLINK-3585","OBJECT_ID":"2022-022Z","MEAN_MOTION_DOT":"0.00000687","PERIAPSIS":"539.059","TIME_SYSTEM":"UTC"},{"MEAN_ELEMENT_THEORY":"SGP4","DECAY_DATE":null,"OBJECT_TYPE":"PAYLOAD","BSTAR":"0.00015124000000","NORAD_CAT_ID":"51876","INCLINATION":"53.2159","ELEMENT_SET_NO":"999","CLASSIFICATION_TYPE":"U","SITE":"AFETR","MEAN_MOTION_DOT":"0.00002120","PERIAPSIS":"539.010","TIME_SYSTEM":"UTC","OBJECT_ID":"2022-022AA","OBJECT_NAME":"STARLINK-3583","REF_FRAME":"TEME","RCS_SIZE":"LARGE","ECCENTRICITY":"0.00010490","MEAN_ANOMALY":"270.2356","APOAPSIS":"540.462","REV_AT_EPOCH":"6837","FILE":"3912278","TLE_LINE2":"2 51876  53.2159 290.5935 0001049  89.8756 270.2356 15.08843129 68374","LAUNCH_DATE":"2022-03-03","EPOCH":"2023-05-19T16:11:09.829248","SEMIMAJOR_AXIS":"6917.871","TLE_LINE1":"1 51876U 22022AA  23139.67441932  .00002120  00000-0  15124-3 0  9990","GP_ID":"232162258","EPHEMERIS_TYPE":"0","ARG_OF_PERICENTER":"89.8756","CENTER_NAME":"EARTH","COUNTRY_CODE":"US","MEAN_MOTION_DDOT":"0.0000000000000","MEAN_MOTION":"15.08843129","RA_OF_ASC_NODE":"290.5935","PERIOD":"95.437"},{"ECCENTRICITY":"0.00013220","REV_AT_EPOCH":"6846","MEAN_ANOMALY":"274.6248","APOAPSIS":"540.652","REF_FRAME":"TEME","RCS_SIZE":"LARGE","TLE_LINE2":"2 51877  53.2164 281.8589 0001322  85.4895 274.6248 15.08842575 68461","FILE":"3912278","EPHEMERIS_TYPE":"0","GP_ID":"232161981","TLE_LINE1":"1 51877U 22022AB  23139.39198155  .00002185  00000-0  15529-3 0  9996","ARG_OF_PERICENTER":"85.4895","CENTER_NAME":"EARTH","SEMIMAJOR_AXIS":"6917.873","LAUNCH_DATE":"2022-03-03","EPOCH":"2023-05-19T09:24:27.205920","PERIOD":"95.437","RA_OF_ASC_NODE":"281.8589","MEAN_MOTION_DDOT":"0.0000000000000","COUNTRY_CODE":"US","MEAN_MOTION":"15.08842575","NORAD_CAT_ID":"51877","DECAY_DATE":null,"OBJECT_TYPE":"PAYLOAD","MEAN_ELEMENT_THEORY":"SGP4","BSTAR":"0.00015529000000","ELEMENT_SET_NO":"999","INCLINATION":"53.2164","SITE":"AFETR","CLASSIFICATION_TYPE":"U","OBJECT_NAME":"STARLINK-3556","OBJECT_ID":"2022-022AB","MEAN_MOTION_DOT":"0.00002185","TIME_SYSTEM":"UTC","PERIAPSIS":"538.823"},{"CENTER_NAME":"EARTH","ARG_OF_PERICENTER":"80.0355","TLE_LINE1":"1 51878U 22022AC  23139.40210196  .00000627  00000-0  57443-4 0  9990","GP_ID":"232160758","EPHEMERIS_TYPE":"0","SEMIMAJOR_AXIS":"6917.892","LAUNCH_DATE":"2022-03-03","EPOCH":"2023-05-19T09:39:01.609344","RA_OF_ASC_NODE":"291.8142","PERIOD":"95.438","MEAN_MOTION":"15.08836085","COUNTRY_CODE":"US","MEAN_MOTION_DDOT":"0.0000000000000","APOAPSIS":"540.379","MEAN_ANOMALY":"280.0739","REV_AT_EPOCH":"6833","ECCENTRICITY":"0.00008990","RCS_SIZE":"LARGE","REF_FRAME":"TEME","TLE_LINE2":"2 51878  53.2166 291.8142 0000899  80.0355 280.0739 15.08836085 68331","FILE":"3912278","SITE":"AFETR","CLASSIFICATION_TYPE":"U","OBJECT_NAME":"STARLINK-3575","OBJECT_ID":"2022-022AC","PERIAPSIS":"539.135","TIME_SYSTEM":"UTC","MEAN_MOTION_DOT":"0.00000627","NORAD_CAT_ID":"51878","BSTAR":"0.00005744300000","DECAY_DATE":null,"MEAN_ELEMENT_THEORY":"SGP4","OBJECT_TYPE":"PAYLOAD","ELEMENT_SET_NO":"999","INCLINATION":"53.2166"},{"REF_FRAME":"TEME","RCS_SIZE":"LARGE","ECCENTRICITY":"0.00012040","MEAN_ANOMALY":"278.7366","APOAPSIS":"540.572","REV_AT_EPOCH":"6852","FILE":"3912278","TLE_LINE2":"2 51879  53.2172 280.1088 0001204  81.3762 278.7366 15.08841927 68528","LAUNCH_DATE":"2022-03-03","EPOCH":"2023-05-19T18:46:10.004736","SEMIMAJOR_AXIS":"6917.874","TLE_LINE1":"1 51879U 22022AD  23139.78206024  .00000781  00000-0  67132-4 0  9994","GP_ID":"232161507","EPHEMERIS_TYPE":"0","CENTER_NAME":"EARTH","ARG_OF_PERICENTER":"81.3762","COUNTRY_CODE":"US","MEAN_MOTION_DDOT":"0.0000000000000","MEAN_MOTION":"15.08841927","RA_OF_ASC_NODE":"280.1088","PERIOD":"95.437","DECAY_DATE":null,"MEAN_ELEMENT_THEORY":"SGP4","OBJECT_TYPE":"PAYLOAD","BSTAR":"0.00006713200000","NORAD_CAT_ID":"51879","INCLINATION":"53.2172","ELEMENT_SET_NO":"999","CLASSIFICATION_TYPE":"U","SITE":"AFETR","MEAN_MOTION_DOT":"0.00000781","PERIAPSIS":"538.907","TIME_SYSTEM":"UTC","OBJECT_NAME":"STARLINK-3572","OBJECT_ID":"2022-022AD"}];
